1 46578U 20070AY  23321.33626113  .00001519  00000+0  12087-3 0  9991
2 46578  53.0550 332.6250 0001600  98.1154 262.0016 15.06386903172813
STARLINK-1705           
1 46579U 20070AZ  23321.47309048  .00002391  00000+0  17937-3 0  9990
2 46579  53.0551 346.9679 0001662  80.7891 279.3286 15.06397005172625
STARLINK-1708           
1 46580U 20070BA  23321.31827947  .00000418  00000+0  46991-4 0  9999
2 46580  53.0553 347.6576 0001539 104.3298 255.7862 15.06386534172601
STARLINK-1712           
1 46581U 20070BB  23321.35007464  .00002618  00000+0  19459-3 0  9990
2 46581  53.0553 342.5202 0001621  83.1959 276.9214 15.06394444172674
STARLINK-1728           
1 46582U 20070BC  23321.33533089  .00001514  00000+0  12055-3 0  9995
2 46582  53.0546 342.5880 0001507  96.4159 263.7002 15.06386749172679
STARLINK-1729           
1 46583U 20070BD  23321.31874448  .00001451  00000+0  11630-3 0  9999
2 46583  53.0543   2.6616 0001426  92.0381 268.0772 15.06385362172387
STARLINK-1732           
1 46584U 20070BE  23321.33902238  .00007743  00000+0  53806-3 0  9992
2 46584  53.0539 342.5640 0001380  78.5277 281.5867 15.06403416172676
STARLINK-1736           
1 46585U 20070BF  23321.35649851  .00000315  00000+0  40033-4 0  9991
2 46585  53.0551 342.4825 0001790  95.9913 264.1280 15.06385244172674
STARLINK-1737           
1 46586U 20070BG  23321.34638662  .00001726  00000+0  13480-3 0  9991
2 46586  53.0546 342.5340 0001419  91.5361 268.5791 15.06387837172674
STARLINK-1746           
1 46588U 20070BJ  23321.32795875  .00001297  00000+0  10601-3 0  9996
2 46588  53.0561 342.6184 0001475  98.7318 261.3839 15.06387513172678
STARLINK-1749           
1 46589U 20070BK  23321.45327898  .00001437  00000+0  11538-3 0  9993
2 46589  53.0546 342.0516 0001575  94.8087 265.3082 15.06387372172684
STARLINK-1755           
1 46591U 20070BM  23321.44221836  .00004247  00000+0  30385-3 0  9993
2 46591  53.0551 342.1062 0001430  93.5678 266.5475 15.06398397171746
STARLINK-1715           
1 46671U 20073B   23321.53715253  .00003983  00000+0  28633-3 0  9995
2 46671  53.0552  71.9154 0001604 126.6069 233.5068 15.06370108169974
STARLINK-1716           
1 46672U 20073C   23321.55417994 -.00001028  00000+0 -50195-4 0  9998
2 46672  53.0549  66.5968 0001127  90.8904 269.2214 15.06380098170053
STARLINK-1717           
1 46673U 20073D   23321.60257077  .00001936  00000+0  14885-3 0  9990
2 46673  53.0564  81.5066 0001254  94.7379 265.3753 15.06394894169846
STARLINK-1718           
1 46674U 20073E   23321.57996691  .00002067  00000+0  15764-3 0  9992
2 46674  53.0536  66.4819 0001307  92.5775 267.5364 15.06396642170059
STARLINK-1720           
1 46675U 20073F   23321.57629532  .00001459  00000+0  11687-3 0  9994
2 46675  53.0541  66.4973 0001381  82.6583 277.4563 15.06388340170053
STARLINK-1766           
1 46677U 20073H   23321.57260466 -.00000220  00000+0  41248-5 0  9997
2 46677  53.0548  66.5138 0001066  93.8170 266.2941 15.06387449170057
STARLINK-1773           
1 46679U 20073K   23321.51178785  .00001664  00000+0  13060-3 0  9996
2 46679  53.0555  46.7918 0001424  88.9390 271.1762 15.06392134170323
STARLINK-1774           
1 46680U 20073L   23321.58334491  .01015480  00000+0  57773-2 0  9993
2 46680  53.0506  74.8813 0001233  80.2482  42.7917 15.76021892170402
STARLINK-1775           
1 46681U 20073M   23321.61729413  .00000676  00000+0  64278-4 0  9990
2 46681  53.0559  81.3172 0001254  83.3827 276.7305 15.06394313169842
STARLINK-1776           
1 46682U 20073N   23321.64309985  .00000988  00000+0  85274-4 0  9997
2 46682  53.0567  81.2013 0001165  83.9348 276.1774 15.06383151169853
STARLINK-1780           
1 46684U 20073Q   23321.56523561  .00000405  00000+0  46122-4 0  9991
2 46684  53.0557  66.5518 0001444  81.6727 278.4426 15.06383297170050
STARLINK-1781           
1 46685U 20073R   23321.64219701  .00000588  00000+0  60727-4 0  9998
2 46685  53.0556  81.4280 0001364  89.2657 270.8487 15.04755517169843
STARLINK-1783           
1 46686U 20073S   23321.59789966  .00003672  00000+0  26520-3 0  9997
2 46686  53.0541  81.3563 0000560 108.0497 252.0553 15.06406880169844
STARLINK-1784           
1 46687U 20073T   23321.52284664 -.00000438  00000+0 -10508-4 0  9995
2 46687  53.0557  46.7405 0001232 100.1308 259.9820 15.06393162170329
STARLINK-1788           
1 46689U 20073V   23321.61266231  .00000497  00000+0  52252-4 0  9992
2 46689  53.0550  81.3252 0001153  90.8704 269.2417 15.06393421171095
STARLINK-1789           
1 46690U 20073W   23321.54772432  .00000123  00000+0  27157-4 0  9993
2 46690  53.0544  56.6264 0001174  89.4409 270.6714 15.06387901170188
STARLINK-1790           
1 46691U 20073X   23321.54680864 -.00001260  00000+0 -65758-4 0  9995
2 46691  53.0560  66.6341 0001188  84.0584 276.0540 15.06380300170042
STARLINK-1791           
1 46692U 20073Y   23321.59888372  .00006436  00000+0  45058-3 0  9993
2 46692  53.0546  81.3988 0001231  84.3042 275.8087 15.06396127169842
STARLINK-1792           
1 46693U 20073Z   23321.55048579 -.00001733  00000+0 -97484-4 0  9995
2 46693  53.0556  66.6152 0001361  80.6880 279.4262 15.06406596170047
STARLINK-1793           
1 46694U 20073AA  23321.50809992  .00002802  00000+0  20698-3 0  9993
2 46694  53.0545  46.8095 0001590  89.0641 271.0530 15.06388034170327
STARLINK-1795           
1 46696U 20073AC  23321.52653531 -.00000090  00000+0  12866-4 0  9990
2 46696  53.0549  46.7253 0001312  82.0829 278.0309 15.06383637170326
STARLINK-1797           
1 46698U 20073AE  23321.58269525 -.00016512  00000+0 -10905-2 0  9991
2 46698  53.0553  66.4628 0000900  91.6484 268.4608 15.06457338170058
STARLINK-1799           
1 46699U 20073AF  23321.58734880  .00000663  00000+0  63399-4 0  9998
2 46699  53.0553  66.4521 0001217 104.3679 255.7445 15.06386032170051
STARLINK-1800           
1 46700U 20073AG  23321.52514281  .00000522  00000+0  53974-4 0  9998
2 46700  53.0535  81.7317 0001289 101.0101 259.1033 15.06387341169839
STARLINK-1801           
1 46701U 20073AH  23321.55786295  .00001405  00000+0  11324-3 0  9991
2 46701  53.0572  66.5840 0001187  78.2971 281.8151 15.06386069170055
STARLINK-1802           
1 46702U 20073AJ  23321.50442105 -.00000197  00000+0  56614-5 0  9997
2 46702  53.0558  46.8259 0001021  94.1406 265.9699 15.06389681170325
STARLINK-1803           
1 46703U 20073AK  23321.60208945 -.00000200  00000+0  54658-5 0  9992
2 46703  53.0549  66.3858 0001004  82.7070 277.4033 15.06383520170055
STARLINK-1804           
1 46704U 20073AL  23321.51547342  .00000949  00000+0  82651-4 0  9992
2 46704  53.0548  46.7758 0001650  91.4683 268.6495 15.06391746170323
STARLINK-1805           
1 46705U 20073AM  23321.52883385  .00000128  00000+0  27459-4 0  9998
2 46705  53.0542  81.7130 0001107  86.8392 273.2724 15.06384710169837
STARLINK-1807           
1 46706U 20073AN  23321.50256427  .00001213  00000+0  10035-3 0  9995
2 46706  53.0534  66.8280 0001454  95.7057 264.4098 15.06391147170044
STARLINK-1808           
1 46707U 20073AP  23321.55971122 -.00004558  00000+0 -28742-3 0  9998
2 46707  53.0555  46.5745 0001415  82.1261 277.9889 15.06380577170337
STARLINK-1810           
1 46709U 20073AR  23321.63574074  .00000296  00000+0  38788-4 0  9999
2 46709  53.0549  81.3584 0001199  90.7607 269.3519 15.06388792169844
STARLINK-1811           
1 46710U 20073AS  23321.61183249  .03042243  11978-4  10283-2 0  9999
2 46710  53.0273  28.1772 0009349   9.6397 141.0263 16.24781077171061
STARLINK-1813           
1 46711U 20073AT  23321.56154733 -.00001229  00000+0 -63653-4 0  9998
2 46711  53.0532  66.5654 0001294  89.0113 271.1024 15.06384990170054
STARLINK-1814           
1 46712U 20073AU  23321.53944578 -.00000316  00000+0 -23467-5 0  9996
2 46712  53.0554  66.7914 0001439  94.4921 265.6232 15.06381940170048
STARLINK-1815           
1 46713U 20073AV  23321.53848380  .00001381  00000+0  11160-3 0  9997
2 46713  53.0555  66.6642 0001285  92.7419 267.3717 15.06387185170043
STARLINK-1816           
1 46714U 20073AW  23321.59472252 -.00000058  00000+0  14987-4 0  9997
2 46714  53.0552  66.4193 0001269  89.8798 270.2336 15.06382679170053
STARLINK-1817           
1 46715U 20073AX  23321.59103998  .00003352  00000+0  24383-3 0  9995
2 46715  53.0548  66.4373 0001464  89.1939 270.9218 15.06396843170050
STARLINK-1818           
1 46716U 20073AY  23321.60623679  .00002425  00000+0  18168-3 0  9995
2 46716  53.0541  81.3635 0001284  88.8500 271.2636 15.06394242169845
STARLINK-1820           
1 46717U 20073AZ  23321.54311050 -.00000039  00000+0  16258-4 0  9995
2 46717  53.0546  66.6480 0001180  91.4179 268.6946 15.06387816170049
STARLINK-1821           
1 46718U 20073BA  23321.52146880  .00000059  00000+0  22824-4 0  9998
2 46718  53.0572  81.7848 0001076  96.7668 263.3443 15.06386741169835
STARLINK-1822           
1 46719U 20073BB  23321.50072822  .00005596  00000+0  39434-3 0  9996
2 46719  53.0553  46.8411 0001215  76.3336 283.7788 15.06392835170329
STARLINK-1825           
1 46722U 20073BE  23321.54359465  .00005877  00000+0  41301-3 0  9993
2 46722  53.0534  81.6479 0001470  76.3346 283.7807 15.06407536169838
STARLINK-1826           
1 46723U 20073BF  23321.50304124 -.00001030  00000+0 -50305-4 0  9996
2 46723  53.0558  41.8341 0001517  88.1578 271.9584 15.06386710170395
STARLINK-1828           
1 46725U 20073BH  23321.63941422  .00001901  00000+0  14652-3 0  9999
2 46725  53.0560  81.2198 0001292  82.3731 277.7404 15.06390407169857
STARLINK-1829           
1 46726U 20073BJ  23321.59745844 -.00004467  00000+0 -28122-3 0  9994
2 46726  53.0547  66.3983 0001332  81.3059 278.8080 15.06396813170059
STARLINK-1830           
1 46727U 20073BK  23321.55463849  .00001851  00000+0  14316-3 0  9995
2 46727  53.0569  41.6008 0001415  96.8104 263.3046 15.06388464170405
STARLINK-1848           
1 46740U 20074B   23321.24961760 -.00002270  00000+0 -13354-3 0  9991
